[{"OBJECT_NAME":"DMSP 5D-3 F16 (USA 172)","OBJECT_ID":"2003-048A","EPOCH":"2026-06-26T17:24:38.409984","MEAN_MOTION":14.1448368,"ECCENTRICITY":0.000809,"INCLINATION":98.9887,"RA_OF_ASC_NODE":201.6168,"ARG_OF_PERICENTER":116.2924,"MEAN_ANOMALY":2.9113,"EPHEMERIS_TYPE":0,"CLASSIFICATION_TYPE":"U","NORAD_CAT_ID":28054,"ELEMENT_SET_NO":999,"REV_AT_EPOCH":17083,"BSTAR":3.3556e-5,"MEAN_MOTION_DOT":1.9e-7,"MEAN_MOTION_DDOT":0},{"OBJECT_NAME":"METEOSAT-9 (MSG-2)","OBJECT_ID":"2005-049B","EPOCH":"2026-06-26T17:54:10.772064","MEAN_MOTION":1.00277588,"ECCENTRICITY":0.000199,"INCLINATION":9.3825,"RA_OF_ASC_NODE":54.0746,"ARG_OF_PERICENTER":356.9761,"MEAN_ANOMALY":178.0964,"EPHEMERIS_TYPE":0,"CLASSIFICATION_TYPE":"U","NORAD_CAT_ID":28912,"ELEMENT_SET_NO":999,"REV_AT_EPOCH":709,"BSTAR":0,"MEAN_MOTION_DOT":1.26e-6,"MEAN_MOTION_DDOT":0},{"OBJECT_NAME":"DMSP 5D-3 F17 (USA 191)","OBJECT_ID":"2006-050A","EPOCH":"2026-06-26T17:10:38.018784","MEAN_MOTION":14.14994015,"ECCENTRICITY":0.0010797,"INCLINATION":98.7378,"RA_OF_ASC_NODE":184.0908,"ARG_OF_PERICENTER":34.4817,"MEAN_ANOMALY":325.7055,"EPHEMERIS_TYPE":0,"CLASSIFICATION_TYPE":"U","NORAD_CAT_ID":29522,"ELEMENT_SET_NO":999,"REV_AT_EPOCH":1377,"BSTAR":4.4338e-5,"MEAN_MOTION_DOT":4.3e-7,"MEAN_MOTION_DDOT":0},{"OBJECT_NAME":"FENGYUN 3A","OBJECT_ID":"2008-026A","EPOCH":"2026-06-26T16:53:08.643264","MEAN_MOTION":14.19573029,"ECCENTRICITY":0.0009867,"INCLINATION":98.6884,"RA_OF_ASC_NODE":118.3589,"ARG_OF_PERICENTER":99.1616,"MEAN_ANOMALY":261.0677,"EPHEMERIS_TYPE":0,"CLASSIFICATION_TYPE":"U","NORAD_CAT_ID":32958,"ELEMENT_SET_NO":999,"REV_AT_EPOCH":93675,"BSTAR":4.8929e-5,"MEAN_MOTION_DOT":6.0e-7,"MEAN_MOTION_DDOT":0},{"OBJECT_NAME":"GOES 14","OBJECT_ID":"2009-033A","EPOCH":"2026-06-26T16:37:24.278304","MEAN_MOTION":1.00108319,"ECCENTRICITY":0.0002247,"INCLINATION":1.7147,"RA_OF_ASC_NODE":82.9383,"ARG_OF_PERICENTER":18.8457,"MEAN_ANOMALY":198.6659,"EPHEMERIS_TYPE":0,"CLASSIFICATION_TYPE":"U","NORAD_CAT_ID":35491,"ELEMENT_SET_NO":999,"REV_AT_EPOCH":668,"BSTAR":0,"MEAN_MOTION_DOT":-3.13e-6,"MEAN_MOTION_DDOT":0},{"OBJECT_NAME":"DMSP 5D-3 F18 (USA 210)","OBJECT_ID":"2009-057A","EPOCH":"2026-06-26T16:30:18.894816","MEAN_MOTION":14.14901861,"ECCENTRICITY":0.0010192,"INCLINATION":98.9041,"RA_OF_ASC_NODE":158.4363,"ARG_OF_PERICENTER":219.6637,"MEAN_ANOMALY":140.3792,"EPHEMERIS_TYPE":0,"CLASSIFICATION_TYPE":"U","NORAD_CAT_ID":35951,"ELEMENT_SET_NO":999,"REV_AT_EPOCH":86093,"BSTAR":0.00013565,"MEAN_MOTION_DOT":2.17e-6,"MEAN_MOTION_DDOT":0},{"OBJECT_NAME":"EWS-G2 (GOES 15)","OBJECT_ID":"2010-008A","EPOCH":"2026-06-26T16:16:39.955872","MEAN_MOTION":1.00268061,"ECCENTRICITY":0.0005325,"INCLINATION":1.3034,"RA_OF_ASC_NODE":82.7227,"ARG_OF_PERICENTER":43.0608,"MEAN_ANOMALY":96.7372,"EPHEMERIS_TYPE":0,"CLASSIFICATION_TYPE":"U","NORAD_CAT_ID":36411,"ELEMENT_SET_NO":999,"REV_AT_EPOCH":5973,"BSTAR":0,"MEAN_MOTION_DOT":3.1e-7,"MEAN_MOTION_DDOT":0},{"OBJECT_NAME":"COMS 1","OBJECT_ID":"2010-032A","EPOCH":"2026-06-26T17:51:18.549216","MEAN_MOTION":0.99166612,"ECCENTRICITY":0.0011925,"INCLINATION":4.8292,"RA_OF_ASC_NODE":75.2461,"ARG_OF_PERICENTER":12.8575,"MEAN_ANOMALY":129.9246,"EPHEMERIS_TYPE":0,"CLASSIFICATION_TYPE":"U","NORAD_CAT_ID":36744,"ELEMENT_SET_NO":999,"REV_AT_EPOCH":5118,"BSTAR":0,"MEAN_MOTION_DOT":4.5e-7,"MEAN_MOTION_DDOT":0},{"OBJECT_NAME":"FENGYUN 3B","OBJECT_ID":"2010-059A","EPOCH":"2026-06-26T17:15:11.168064","MEAN_MOTION":14.14843168,"ECCENTRICITY":0.002243,"INCLINATION":98.962,"RA_OF_ASC_NODE":223.774,"ARG_OF_PERICENTER":157.0638,"MEAN_ANOMALY":312.5589,"EPHEMERIS_TYPE":0,"CLASSIFICATION_TYPE":"U","NORAD_CAT_ID":37214,"ELEMENT_SET_NO":999,"REV_AT_EPOCH":80877,"BSTAR":0.00013917,"MEAN_MOTION_DOT":2.24e-6,"MEAN_MOTION_DDOT":0},{"OBJECT_NAME":"SUOMI NPP","OBJECT_ID":"2011-061A","EPOCH":"2026-06-26T17:09:51.920064","MEAN_MOTION":14.19519203,"ECCENTRICITY":9.89e-5,"INCLINATION":98.7954,"RA_OF_ASC_NODE":118.5262,"ARG_OF_PERICENTER":338.9691,"MEAN_ANOMALY":21.1444,"EPHEMERIS_TYPE":0,"CLASSIFICATION_TYPE":"U","NORAD_CAT_ID":37849,"ELEMENT_SET_NO":999,"REV_AT_EPOCH":75979,"BSTAR":4.5032e-5,"MEAN_MOTION_DOT":5.1e-7,"MEAN_MOTION_DDOT":0},{"OBJECT_NAME":"METEOSAT-10 (MSG-3)","OBJECT_ID":"2012-035B","EPOCH":"2026-06-26T07:25:20.337024","MEAN_MOTION":1.00268518,"ECCENTRICITY":0.0001742,"INCLINATION":4.693,"RA_OF_ASC_NODE":60.9813,"ARG_OF_PERICENTER":8.4001,"MEAN_ANOMALY":316.5762,"EPHEMERIS_TYPE":0,"CLASSIFICATION_TYPE":"U","NORAD_CAT_ID":38552,"ELEMENT_SET_NO":999,"REV_AT_EPOCH":5094,"BSTAR":0,"MEAN_MOTION_DOT":0,"MEAN_MOTION_DDOT":0},{"OBJECT_NAME":"METOP-B","OBJECT_ID":"2012-049A","EPOCH":"2026-06-26T16:37:04.452096","MEAN_MOTION":14.21441705,"ECCENTRICITY":0.000164,"INCLINATION":98.65,"RA_OF_ASC_NODE":229.0018,"ARG_OF_PERICENTER":351.4215,"MEAN_ANOMALY":8.6934,"EPHEMERIS_TYPE":0,"CLASSIFICATION_TYPE":"U","NORAD_CAT_ID":38771,"ELEMENT_SET_NO":999,"REV_AT_EPOCH":71461,"BSTAR":5.8999e-5,"MEAN_MOTION_DOT":8.6e-7,"MEAN_MOTION_DDOT":0},{"OBJECT_NAME":"INSAT-3D","OBJECT_ID":"2013-038B","EPOCH":"2026-06-26T16:35:24.470016","MEAN_MOTION":1.00271905,"ECCENTRICITY":0.0001147,"INCLINATION":1.9505,"RA_OF_ASC_NODE":82.4325,"ARG_OF_PERICENTER":1.8439,"MEAN_ANOMALY":208.9084,"EPHEMERIS_TYPE":0,"CLASSIFICATION_TYPE":"U","NORAD_CAT_ID":39216,"ELEMENT_SET_NO":999,"REV_AT_EPOCH":4717,"BSTAR":0,"MEAN_MOTION_DOT":-3.29e-6,"MEAN_MOTION_DDOT":0},{"OBJECT_NAME":"FENGYUN 3C","OBJECT_ID":"2013-052A","EPOCH":"2026-06-26T17:25:32.892096","MEAN_MOTION":14.15757085,"ECCENTRICITY":0.0014682,"INCLINATION":98.4983,"RA_OF_ASC_NODE":151.163,"ARG_OF_PERICENTER":0.9101,"MEAN_ANOMALY":359.2098,"EPHEMERIS_TYPE":0,"CLASSIFICATION_TYPE":"U","NORAD_CAT_ID":39260,"ELEMENT_SET_NO":999,"REV_AT_EPOCH":65991,"BSTAR":5.3872e-5,"MEAN_MOTION_DOT":6.4e-7,"MEAN_MOTION_DDOT":0},{"OBJECT_NAME":"METEOR-M 2","OBJECT_ID":"2014-037A","EPOCH":"2026-06-26T18:56:12.166944","MEAN_MOTION":14.21463,"ECCENTRICITY":0.0006308,"INCLINATION":98.5112,"RA_OF_ASC_NODE":153.187,"ARG_OF_PERICENTER":20.2423,"MEAN_ANOMALY":339.9004,"EPHEMERIS_TYPE":0,"CLASSIFICATION_TYPE":"U","NORAD_CAT_ID":40069,"ELEMENT_SET_NO":999,"REV_AT_EPOCH":62068,"BSTAR":-1.8585e-5,"MEAN_MOTION_DOT":-8.3e-7,"MEAN_MOTION_DDOT":0},{"OBJECT_NAME":"HIMAWARI-8","OBJECT_ID":"2014-060A","EPOCH":"2026-06-26T16:38:39.157728","MEAN_MOTION":1.00277107,"ECCENTRICITY":0.0001217,"INCLINATION":0.0132,"RA_OF_ASC_NODE":312.5481,"ARG_OF_PERICENTER":131.0053,"MEAN_ANOMALY":221.5749,"EPHEMERIS_TYPE":0,"CLASSIFICATION_TYPE":"U","NORAD_CAT_ID":40267,"ELEMENT_SET_NO":999,"REV_AT_EPOCH":4285,"BSTAR":0,"MEAN_MOTION_DOT":-2.63e-6,"MEAN_MOTION_DDOT":0},{"OBJECT_NAME":"FENGYUN 2G","OBJECT_ID":"2014-090A","EPOCH":"2026-06-26T16:26:53.974752","MEAN_MOTION":1.00269056,"ECCENTRICITY":0.0003579,"INCLINATION":5.6634,"RA_OF_ASC_NODE":72.7057,"ARG_OF_PERICENTER":150.4754,"MEAN_ANOMALY":37.9966,"EPHEMERIS_TYPE":0,"CLASSIFICATION_TYPE":"U","NORAD_CAT_ID":40367,"ELEMENT_SET_NO":999,"REV_AT_EPOCH":4209,"BSTAR":0,"MEAN_MOTION_DOT":-2.96e-6,"MEAN_MOTION_DDOT":0}]
